{
  "type": "FeatureCollection",
  "features": [{
    "type": "Feature",
    "geometry": {
      "type": "LineString",
      "coordinates": [
        [-91.3998, 31.5499, 42],
        [-91.3600, 31.5800, 48],
        [-91.3100, 31.6100, 55],
        [-91.2400, 31.6500, 63],
        [-91.1750, 31.6833, 71],
        [-91.1100, 31.7200, 68],
        [-91.0500, 31.7700, 74],
        [-91.0000, 31.8200, 82],
        [-90.9840, 31.9580, 79],
        [-90.9600, 31.9750, 85],
        [-90.9400, 31.9900, 91],
        [-90.9267, 31.9933, 88],
        [-90.9100, 32.0100, 95],
        [-90.8967, 32.0933, 101],
        [-90.8700, 32.1300, 107],
        [-90.8400, 32.1800, 112],
        [-90.8100, 32.2300, 108],
        [-90.7800, 32.2700, 115],
        [-90.7400, 32.3100, 119],
        [-90.7000, 32.3500, 113],
        [-90.6600, 32.3900, 108],
        [-90.6200, 32.4300, 103],
        [-90.5800, 32.4700, 98],
        [-90.4800, 32.4600, 94],
        [-90.4200, 32.4500, 89],
        [-90.3500, 32.4400, 85],
        [-90.2800, 32.4300, 82],
        [-90.2000, 32.4200, 78],
        [-90.1323, 32.4238, 74]
      ]
    },
    "properties": {
      "name": "Natchez Trace Lower — Natchez to Ridgeland",
      "distance_miles": 105
    }
  }]
}
