{
  "type": "FeatureCollection",
  "features": [
    {
      "type": "Feature",
      "geometry": {
        "type": "LineString",
        "coordinates": [
          [
            -86.7816,
            36.1661,
            153.0
          ],
          [
            -87.05,
            35.95,
            273.0
          ],
          [
            -87.2833,
            35.7167,
            186.0
          ],
          [
            -87.55,
            35.5,
            284.0
          ],
          [
            -87.65,
            35.4333,
            247.0
          ],
          [
            -87.8833,
            35.2167,
            263.0
          ],
          [
            -88.05,
            35.05,
            211.0
          ],
          [
            -88.1667,
            34.8833,
            168.0
          ],
          [
            -88.2333,
            34.7167,
            170.0
          ],
          [
            -88.2833,
            34.55,
            159.0
          ],
          [
            -88.3167,
            34.4,
            150.0
          ],
          [
            -88.35,
            34.25,
            108.0
          ],
          [
            -88.7028,
            34.2583,
            83.0
          ],
          [
            -88.55,
            34.1,
            95.0
          ],
          [
            -88.6,
            33.95,
            90.0
          ],
          [
            -88.65,
            33.8,
            97.0
          ],
          [
            -88.75,
            33.65,
            74.0
          ],
          [
            -88.85,
            33.5,
            69.0
          ],
          [
            -89.1,
            33.35,
            123.0
          ],
          [
            -89.35,
            33.2,
            133.0
          ],
          [
            -89.5,
            33.05,
            132.0
          ],
          [
            -89.6,
            32.9,
            126.0
          ],
          [
            -89.7,
            32.75,
            123.0
          ],
          [
            -89.75,
            32.6,
            103.0
          ],
          [
            -89.85,
            32.45,
            126.0
          ],
          [
            -89.95,
            32.3,
            140.0
          ],
          [
            -90.05,
            32.15,
            115.0
          ],
          [
            -90.15,
            32.05,
            121.0
          ],
          [
            -90.7667,
            31.9833,
            76.0
          ],
          [
            -90.8,
            31.95,
            69.0
          ],
          [
            -90.85,
            31.9,
            52.0
          ],
          [
            -90.9167,
            31.8667,
            51.0
          ],
          [
            -90.9833,
            31.8333,
            91.0
          ],
          [
            -91.05,
            31.8,
            86.0
          ],
          [
            -91.2,
            31.75,
            61.0
          ],
          [
            -91.32,
            31.68,
            74.0
          ],
          [
            -91.3833,
            31.6167,
            78.0
          ],
          [
            -91.38,
            31.57,
            68.0
          ],
          [
            -91.3998,
            31.5499,
            71.0
          ]
        ]
      },
      "properties": {
        "name": "Natchez Trace Parkway - Full Route"
      }
    }
  ]
}