{"type": "FeatureCollection", "features": [{"type": "Feature", "geometry": {"type": "LineString", "coordinates": [[-91.3690432, 31.5452366, 46.0], [-91.3659216, 31.5476358, 45.0], [-91.3643518, 31.5486092, 44.0], [-91.3626008, 31.5494499, 44.0], [-91.3607273, 31.5501146, 41.0], [-91.3577446, 31.5507546, 49.0], [-91.3559654, 31.5509246, 50.0], [-91.3546265, 31.550941, 50.0], [-91.3530431, 31.5509407, 54.0], [-91.3519421, 31.5510798, 47.0], [-91.3508529, 31.5513379, 47.0], [-91.3491938, 31.5520255, 49.0], [-91.3475224, 31.5530609, 56.0], [-91.3463765, 31.5537272, 56.0], [-91.3452554, 31.5541573, 55.0], [-91.3430891, 31.5549145, 71.0], [-91.3412008, 31.5559659, 72.0], [-91.3387439, 31.5577944, 78.0], [-91.3374518, 31.5585572, 78.0], [-91.3350654, 31.5593306, 80.0], [-91.3331487, 31.5595445, 80.0], [-91.3309993, 31.5594576, 78.0], [-91.3286295, 31.5594923, 66.0], [-91.3260025, 31.5601672, 63.0], [-91.3246247, 31.5606467, 74.0], [-91.3233918, 31.5609012, 74.0], [-91.3211057, 31.5613323, 75.0], [-91.3196706, 31.5620891, 60.0], [-91.3187194, 31.5629552, 72.0], [-91.3178417, 31.5642214, 72.0], [-91.3166532, 31.5654826, 66.0], [-91.3149371, 31.5665328, 66.0], [-91.3132629, 31.5670549, 66.0], [-91.3113936, 31.5676928, 67.0], [-91.3096473, 31.5687186, 69.0], [-91.3074112, 31.5699937, 89.0], [-91.3054149, 31.5706615, 89.0], [-91.3034194, 31.5709571, 89.0], [-91.3020591, 31.5709676, 88.0], [-91.2994954, 31.5706389, 80.0], [-91.2975583, 31.570658, 79.0], [-91.295718, 31.5711761, 90.0], [-91.2938869, 31.5721805, 90.0], [-91.2921544, 31.5736505, 94.0], [-91.2901109, 31.5761231, 90.0], [-91.2891449, 31.5768664, 87.0], [-91.2884007, 31.5772556, 76.0], [-91.2868807, 31.5781061, 79.0], [-91.2859795, 31.5790566, 79.0], [-91.2849388, 31.5804916, 89.0], [-91.2836625, 31.5817529, 93.0], [-91.2827385, 31.5828928, 93.0], [-91.2821385, 31.5849061, 98.0], [-91.2815377, 31.586341, 97.0], [-91.2804219, 31.5875291, 88.0], [-91.2792133, 31.5891696, 88.0], [-91.2781012, 31.5907618, 88.0], [-91.2765061, 31.5916554, 85.0], [-91.2746476, 31.5919517, 91.0], [-91.2731076, 31.5923676, 91.0], [-91.2719783, 31.5931313, 93.0], [-91.2709845, 31.5941852, 89.0], [-91.2692414, 31.5951672, 99.0], [-91.2677083, 31.5958363, 106.0], [-91.2664208, 31.5968872, 110.0], [-91.2652621, 31.5986052, 96.0], [-91.2642369, 31.6007025, 93.0], [-91.2629452, 31.602233, 79.0], [-91.2618616, 31.6040514, 81.0], [-91.2617328, 31.6053764, 81.0], [-91.2620817, 31.6074085, 93.0], [-91.2621387, 31.6085205, 94.0], [-91.2617953, 31.6103415, 94.0], [-91.2613383, 31.6114136, 107.0], [-91.2591134, 31.6139608, 109.0], [-91.256281, 31.6156785, 112.0], [-91.254354, 31.617741, 117.0], [-91.2527609, 31.6207137, 119.0], [-91.2511945, 31.6229003, 127.0], [-91.248863, 31.62457, 133.0], [-91.2453407, 31.6254531, 121.0], [-91.2400624, 31.6260004, 127.0], [-91.2359249, 31.6274095, 139.0], [-91.2337337, 31.6289934, 133.0], [-91.2312932, 31.6310533, 137.0], [-91.2299803, 31.6315993, 133.0], [-91.226055, 31.6326797, 123.0], [-91.2229773, 31.634264, 126.0], [-91.2203812, 31.6366805, 122.0], [-91.217744, 31.6400033, 89.0], [-91.2129351, 31.6439711, 86.0], [-91.2105096, 31.646267, 81.0], [-91.209612, 31.647217, 78.0], [-91.2068526, 31.6509908, 82.0], [-91.2059341, 31.6532973, 86.0], [-91.2057066, 31.6564886, 90.0], [-91.2064305, 31.6612849, 101.0], [-91.2062029, 31.6658834, 93.0], [-91.2047438, 31.6700075, 77.0], [-91.203092, 31.672079, 73.0], [-91.1952289, 31.6771845, 74.0], [-91.187742, 31.683419, 53.0], [-91.1844073, 31.6871508, 62.0], [-91.1815567, 31.6923867, 49.0], [-91.1809522, 31.6944386, 64.0], [-91.1801236, 31.698086, 63.0], [-91.179686, 31.7020771, 57.0], [-91.1792097, 31.708506, 40.0], [-91.178764, 31.711665, 62.0], [-91.1780694, 31.7152142, 53.0], [-91.1767188, 31.7200185, 63.0], [-91.1755756, 31.7238927, 53.0], [-91.1750562, 31.7289159, 47.0], [-91.17517, 31.731916, 48.0], [-91.1762184, 31.7369442, 61.0], [-91.1774547, 31.7424187, 46.0], [-91.1774209, 31.744223, 53.0], [-91.1764377, 31.7462788, 40.0], [-91.1756116, 31.7484597, 44.0], [-91.1752734, 31.7507874, 49.0], [-91.1759616, 31.7540248, 50.0], [-91.1759939, 31.7556529, 68.0], [-91.1750712, 31.7572402, 78.0], [-91.1735817, 31.7581877, 74.0], [-91.1709728, 31.7587545, 60.0], [-91.1696668, 31.7591456, 39.0], [-91.1681756, 31.7603467, 44.0], [-91.1665742, 31.763878, 46.0], [-91.1652693, 31.7671752, 49.0], [-91.1643163, 31.7692044, 51.0], [-91.1630955, 31.7706507, 51.0], [-91.1595876, 31.7734872, 62.0], [-91.1544933, 31.7769151, 56.0], [-91.1515359, 31.7785286, 50.0], [-91.1491376, 31.7792814, 41.0], [-91.1462536, 31.7794966, 46.0], [-91.1427534, 31.7790019, 51.0], [-91.1417847, 31.7789022, 51.0], [-91.1406225, 31.7789794, 39.0], [-91.1393906, 31.7792976, 38.0], [-91.1377395, 31.7801957, 38.0], [-91.1351207, 31.7817763, 43.0], [-91.1337563, 31.7822933, 43.0], [-91.1318823, 31.7827306, 53.0], [-91.1281799, 31.7831006, 52.0], [-91.125152, 31.7836307, 56.0], [-91.1207113, 31.7850276, 54.0], [-91.1171646, 31.7866263, 59.0], [-91.113399, 31.7888538, 44.0], [-91.1099322, 31.7914809, 49.0], [-91.107638, 31.7936077, 50.0], [-91.1055989, 31.7958682, 55.0], [-91.1023939, 31.7998308, 61.0], [-91.100203, 31.8014345, 58.0], [-91.0982247, 31.8023875, 71.0], [-91.0962497, 31.8033233, 73.0], [-91.0921004, 31.8059781, 81.0], [-91.0893752, 31.8081771, 79.0], [-91.0877047, 31.8092356, 79.0], [-91.0841392, 31.8108621, 76.0], [-91.0820382, 31.8124855, 80.0], [-91.07945, 31.8153307, 88.0], [-91.0762075, 31.8202012, 84.0], [-91.0744812, 31.823448, 84.0], [-91.0736126, 31.8259422, 89.0], [-91.0729625, 31.8292753, 89.0], [-91.0721546, 31.8311902, 98.0], [-91.0712848, 31.8323614, 99.0], [-91.069156, 31.8345498, 100.0], [-91.0666333, 31.8376931, 98.0], [-91.065396, 31.839147, 98.0], [-91.063929, 31.8403762, 102.0], [-91.0620546, 31.8414806, 100.0], [-91.0593076, 31.8425945, 97.0], [-91.0576481, 31.8434924, 102.0], [-91.0566542, 31.8443198, 102.0], [-91.0551322, 31.8460607, 99.0], [-91.0536966, 31.8479139, 104.0], [-91.0518423, 31.849136, 104.0], [-91.0482534, 31.8505961, 105.0], [-91.046421, 31.851755, 102.0], [-91.0449491, 31.8534878, 113.0], [-91.044282, 31.8548808, 120.0], [-91.0436075, 31.8588084, 110.0], [-91.043001, 31.8606485, 100.0], [-91.0413998, 31.8631066, 87.0], [-91.0403008, 31.8652351, 95.0], [-91.0397355, 31.8681402, 85.0], [-91.037768, 31.8731591, 89.0], [-91.0362954, 31.8763566, 87.0], [-91.0332289, 31.8822238, 88.0], [-91.0305311, 31.886212, 87.0], [-91.0283365, 31.8885443, 89.0], [-91.0266163, 31.8898774, 89.0], [-91.0236588, 31.8917884, 87.0], [-91.021909, 31.8933818, 80.0], [-91.0206395, 31.8954355, 82.0], [-91.0191402, 31.8979901, 86.0], [-91.018008, 31.8993387, 89.0], [-91.0146285, 31.9019893, 95.0], [-91.0110775, 31.904867, 86.0], [-91.0083601, 31.9083097, 91.0], [-91.0041641, 31.9151888, 84.0], [-91.0028706, 31.9179147, 87.0], [-91.00183, 31.922059, 80.0], [-91.0008321, 31.9255171, 91.0], [-90.9997022, 31.9271673, 91.0], [-90.9982688, 31.9284017, 91.0], [-90.9972081, 31.9290342, 88.0], [-90.9940525, 31.9300484, 74.0], [-90.9897763, 31.9312709, 76.0], [-90.9857705, 31.9326227, 81.0], [-90.9817315, 31.9342055, 73.0], [-90.977399, 31.9361568, 60.0], [-90.9756325, 31.9371687, 44.0], [-90.973873, 31.9385945, 44.0], [-90.9724028, 31.9402756, 44.0], [-90.9713373, 31.9414849, 44.0], [-90.9698876, 31.942926, 51.0], [-90.9684144, 31.944255, 43.0], [-90.9668744, 31.9459091, 43.0], [-90.9649605, 31.9483629, 32.0], [-90.9631273, 31.9516102, 31.0], [-90.9625502, 31.9530405, 34.0], [-90.9615793, 31.9563572, 40.0], [-90.9607768, 31.9592943, 32.0], [-90.9595892, 31.962273, 56.0], [-90.958184, 31.964976, 61.0], [-90.9569491, 31.9669234, 60.0], [-90.9564001, 31.9677681, 60.0], [-90.9553855, 31.9691694, 65.0], [-90.953569, 31.9715783, 71.0], [-90.95252, 31.9726706, 71.0], [-90.9509392, 31.9739785, 71.0], [-90.9490703, 31.9753396, 64.0], [-90.9472044, 31.9769408, 69.0], [-90.94587, 31.9786951, 74.0], [-90.9449211, 31.9806504, 79.0], [-90.9438205, 31.9830953, 82.0], [-90.9427524, 31.9849738, 74.0], [-90.9415625, 31.9862719, 70.0], [-90.9403031, 31.9872356, 70.0], [-90.9380786, 31.9884021, 65.0], [-90.9363184, 31.9893543, 50.0], [-90.9350109, 31.990337, 53.0], [-90.9328279, 31.9923265, 42.0], [-90.9314117, 31.9934765, 42.0], [-90.929829, 31.994425, 30.0], [-90.9282265, 31.9951016, 31.0], [-90.9259105, 31.9956913, 32.0], [-90.9243141, 31.9958614, 32.0], [-90.9227988, 31.9958607, 34.0], [-90.9210823, 31.995689, 35.0], [-90.9178111, 31.9952616, 42.0], [-90.912539, 31.994605, 40.0], [-90.9065457, 31.9941253, 32.0], [-90.9024615, 31.9940878, 34.0], [-90.8980812, 31.9942964, 42.0], [-90.8915407, 31.9949232, 42.0], [-90.885391, 31.9958769, 40.0], [-90.8792955, 31.9971258, 39.0], [-90.8717064, 31.9991746, 45.0], [-90.8680681, 32.0005787, 44.0], [-90.8645408, 32.0025387, 37.0], [-90.8609481, 32.0051723, 41.0], [-90.8568431, 32.0087088, 43.0], [-90.8532139, 32.0126752, 47.0], [-90.8507312, 32.0159015, 37.0], [-90.8490537, 32.0180892, 36.0], [-90.8459664, 32.0213862, 46.0], [-90.8437737, 32.0232673, 62.0], [-90.8417408, 32.025251, 53.0], [-90.8402458, 32.0278495, 59.0], [-90.8383928, 32.0350014, 56.0], [-90.8364237, 32.0388589, 62.0], [-90.8337083, 32.043527, 63.0], [-90.8322991, 32.0486916, 71.0], [-90.8301673, 32.0529338, 73.0], [-90.8269617, 32.0588734, 89.0], [-90.8252641, 32.0612491, 89.0], [-90.819807, 32.0650084, 105.0], [-90.812629, 32.070045, 86.0], [-90.8104596, 32.0718289, 88.0], [-90.8070797, 32.0771805, 81.0], [-90.802563, 32.0813375, 81.0], [-90.8003939, 32.0833962, 75.0], [-90.7975496, 32.0873274, 70.0], [-90.7957062, 32.0890383, 70.0], [-90.790775, 32.0908095, 72.0], [-90.7877731, 32.0925056, 84.0], [-90.7850233, 32.095831, 81.0], [-90.7815408, 32.0986663, 59.0], [-90.776053, 32.102032, 62.0], [-90.775039, 32.103132, 61.0], [-90.7724548, 32.107186, 64.0], [-90.7697851, 32.1128814, 52.0], [-90.7686474, 32.1147706, 49.0], [-90.7666918, 32.1171284, 42.0], [-90.7634987, 32.1200045, 56.0], [-90.755964, 32.125153, 64.0], [-90.750147, 32.1283855, 63.0], [-90.7456074, 32.1305394, 67.0], [-90.738605, 32.1339671, 69.0], [-90.7356134, 32.1360594, 76.0], [-90.7334766, 32.1380531, 74.0], [-90.7322855, 32.1394424, 79.0], [-90.7273005, 32.1455373, 78.0], [-90.7252747, 32.147211, 76.0], [-90.7230212, 32.1486666, 78.0], [-90.7209642, 32.1496735, 71.0], [-90.7178441, 32.1507083, 71.0], [-90.7073886, 32.1526734, 82.0], [-90.7022538, 32.1544855, 87.0], [-90.696081, 32.156773, 90.0], [-90.6921669, 32.1576548, 92.0], [-90.6850827, 32.1589186, 76.0], [-90.6798431, 32.1607233, 75.0], [-90.671608, 32.165823, 76.0], [-90.6681686, 32.1677802, 66.0], [-90.664204, 32.169526, 65.0], [-90.6599772, 32.1709503, 63.0], [-90.6550512, 32.1727314, 54.0], [-90.6511256, 32.17471, 61.0], [-90.6473843, 32.1771935, 76.0], [-90.6420175, 32.1811491, 78.0], [-90.6404997, 32.1820365, 90.0], [-90.6386929, 32.1827859, 86.0], [-90.6332638, 32.1839461, 84.0], [-90.6252116, 32.1860107, 110.0], [-90.619656, 32.18897, 98.0], [-90.617642, 32.190289, 100.0], [-90.6089569, 32.1976475, 75.0], [-90.6051763, 32.2003885, 81.0], [-90.6009945, 32.2029726, 78.0], [-90.5943005, 32.2062403, 75.0], [-90.587511, 32.208664, 66.0], [-90.5809873, 32.2103653, 55.0], [-90.576388, 32.2115504, 65.0], [-90.5722575, 32.2132661, 65.0], [-90.5685045, 32.2155663, 66.0], [-90.5616583, 32.2215106, 55.0], [-90.556534, 32.2256131, 66.0], [-90.5537302, 32.2274319, 70.0], [-90.5469284, 32.2321528, 57.0], [-90.5422256, 32.2369572, 68.0], [-90.5377472, 32.2421911, 56.0], [-90.5336514, 32.2458889, 64.0], [-90.5299886, 32.2482187, 78.0], [-90.5243252, 32.2507138, 87.0], [-90.517931, 32.2526329, 89.0], [-90.5132452, 32.2547586, 88.0], [-90.508578, 32.2582197, 76.0], [-90.5044817, 32.2607607, 83.0], [-90.502444, 32.2616587, 88.0], [-90.4952611, 32.2641467, 75.0], [-90.4933764, 32.2648687, 86.0], [-90.490369, 32.266468, 88.0], [-90.488383, 32.2678759, 86.0], [-90.48591, 32.2700826, 77.0], [-90.4832675, 32.2728425, 86.0], [-90.4812, 32.274659, 86.0], [-90.4782511, 32.2765613, 89.0], [-90.4752703, 32.2779853, 84.0], [-90.4723989, 32.2790162, 84.0], [-90.468768, 32.280115, 84.0], [-90.4668803, 32.2806174, 80.0], [-90.464704, 32.281075, 90.0], [-90.4621885, 32.2815333, 85.0], [-90.4549637, 32.2822416, 98.0], [-90.449727, 32.282739, 90.0], [-90.4469318, 32.2831564, 98.0], [-90.4435609, 32.2839706, 106.0], [-90.4395028, 32.285448, 110.0], [-90.4329645, 32.2883115, 87.0], [-90.4304673, 32.2892861, 76.0], [-90.4275299, 32.2901451, 77.0], [-90.4254687, 32.2905891, 90.0], [-90.4234057, 32.2908807, 76.0], [-90.4190233, 32.2910274, 86.0], [-90.4145194, 32.2912523, 90.0], [-90.4107249, 32.2916597, 87.0], [-90.4082991, 32.2921884, 87.0], [-90.4062821, 32.2928845, 87.0], [-90.403954, 32.2940386, 89.0], [-90.3990715, 32.2973163, 86.0], [-90.3924067, 32.3029004, 76.0], [-90.3898253, 32.3054199, 80.0], [-90.3857622, 32.3098052, 85.0], [-90.3834503, 32.3118525, 88.0], [-90.3790415, 32.3147983, 92.0], [-90.3735245, 32.3182958, 90.0], [-90.3691462, 32.321616, 94.0], [-90.3637819, 32.3263915, 96.0], [-90.3602912, 32.3300476, 102.0], [-90.3595195, 32.3310658, 102.0], [-90.3575132, 32.3347782, 98.0], [-90.3554665, 32.3397814, 106.0], [-90.3549109, 32.341027, 106.0], [-90.3538757, 32.34282, 106.0], [-90.3530485, 32.3439495, 103.0], [-90.352114, 32.3450403, 103.0], [-90.3489943, 32.3478036, 105.0], [-90.3445741, 32.3497251, 111.0], [-90.3431306, 32.3502531, 109.0], [-90.3415991, 32.3510165, 117.0], [-90.3394571, 32.3522708, 122.0], [-90.3371028, 32.3532895, 122.0], [-90.3337165, 32.3540986, 125.0], [-90.3299728, 32.3552922, 115.0], [-90.3280466, 32.3558801, 124.0], [-90.3261484, 32.3560922, 124.0], [-90.3255345, 32.3560916, 124.0], [-90.3245538, 32.3560489, 108.0], [-90.3239356, 32.3560413, 108.0], [-90.323428, 32.3560535, 108.0], [-90.3221805, 32.3561484, 102.0], [-90.3216359, 32.3562262, 102.0], [-90.3210384, 32.3563354, 95.0], [-90.3204661, 32.3564671, 97.0], [-90.3199218, 32.3566133, 97.0], [-90.3194022, 32.3567757, 97.0], [-90.3184722, 32.3571014, 97.0], [-90.318073, 32.3572341, 97.0], [-90.3174336, 32.357419, 97.0], [-90.3167793, 32.3575713, 97.0], [-90.3160843, 32.3576992, 96.0], [-90.3152548, 32.357806, 96.0], [-90.3118552, 32.3581825, 111.0], [-90.3076907, 32.359178, 103.0], [-90.3037869, 32.3606492, 104.0], [-90.3005852, 32.3614812, 93.0], [-90.298373, 32.3622685, 92.0], [-90.2962232, 32.3635942, 90.0], [-90.2938416, 32.365363, 98.0], [-90.2915447, 32.3664493, 93.0], [-90.2886063, 32.3673491, 89.0], [-90.286606, 32.3683561, 84.0], [-90.2847028, 32.3698346, 82.0], [-90.2812525, 32.372599, 84.0], [-90.2777334, 32.3741937, 87.0], [-90.2733131, 32.3767309, 94.0], [-90.2683922, 32.3790589, 99.0], [-90.2663581, 32.3799673, 101.0], [-90.2637969, 32.3803054, 97.0], [-90.2622341, 32.380481, 96.0], [-90.2609857, 32.3808306, 96.0], [-90.2600207, 32.381369, 95.0], [-90.2592535, 32.3820721, 95.0], [-90.2585747, 32.3831062, 95.0], [-90.258104, 32.384377, 99.0], [-90.2573415, 32.3860587, 98.0], [-90.2559119, 32.3879161, 99.0], [-90.2537147, 32.3897425, 99.0], [-90.2513886, 32.3915255, 98.0], [-90.2497149, 32.3932866, 111.0], [-90.247449, 32.3951999, 100.0], [-90.2444483, 32.3966856, 111.0], [-90.2409345, 32.3980553, 114.0], [-90.2389207, 32.399241, 119.0], [-90.2364627, 32.4013019, 125.0], [-90.2339736, 32.4032441, 112.0], [-90.2316304, 32.4044905, 115.0], [-90.2297507, 32.4056934, 112.0], [-90.2286521, 32.406621, 114.0], [-90.2273818, 32.4079688, 114.0], [-90.2255708, 32.4097731, 117.0], [-90.2239228, 32.4110484, 125.0], [-90.2225581, 32.4120628, 126.0], [-90.220893, 32.413541, 124.0], [-90.2193395, 32.4149032, 132.0], [-90.2175036, 32.4160192, 117.0], [-90.2154342, 32.4168885, 131.0], [-90.2127992, 32.4178449, 120.0], [-90.211237, 32.418553, 114.0], [-90.20958, 32.419444, 113.0], [-90.206688, 32.420814, 115.0], [-90.203342, 32.421784, 128.0], [-90.1998379, 32.4222371, 126.0], [-90.197466, 32.42277, 123.0], [-90.194284, 32.424129, 124.0], [-90.192907, 32.424573, 117.0], [-90.190652, 32.425134, 127.0], [-90.188658, 32.425471, 129.0], [-90.185616, 32.426506, 126.0], [-90.1822519, 32.4279037, 119.0], [-90.1800717, 32.4285453, 115.0], [-90.1782403, 32.4289493, 110.0], [-90.1754183, 32.4294356, 120.0], [-90.1735601, 32.4298948, 116.0], [-90.1715025, 32.4305494, 118.0], [-90.1699244, 32.4309859, 120.0], [-90.1681766, 32.4312859, 120.0], [-90.1664449, 32.4314161, 121.0], [-90.1644708, 32.4313342, 116.0], [-90.1622921, 32.4310046, 115.0], [-90.1591546, 32.4305159, 114.0], [-90.1567362, 32.4302954, 132.0], [-90.1545814, 32.430202, 127.0], [-90.1522558, 32.430028, 113.0], [-90.1502082, 32.4297314, 116.0], [-90.1472183, 32.4290411, 109.0], [-90.1462209, 32.4288049, 109.0], [-90.1450298, 32.4285088, 112.0], [-90.1418174, 32.4277357, 120.0], [-90.1399228, 32.4273326, 121.0], [-90.1366261, 32.4267976, 110.0], [-90.1345458, 32.4265148, 115.0], [-90.1324976, 32.4263375, 130.0], [-90.1309239, 32.4262902, 121.0], [-90.128662, 32.42633, 127.0], [-90.1246649, 32.4267509, 118.0], [-90.1217191, 32.4270593, 133.0], [-90.1183219, 32.4272982, 130.0], [-90.1146296, 32.427414, 121.0], [-90.1118529, 32.427399, 109.0], [-90.1089648, 32.4272938, 103.0], [-90.1074445, 32.4271948, 103.0], [-90.1051797, 32.4269793, 107.0], [-90.103519, 32.4267613, 106.0], [-90.102164, 32.426539, 106.0], [-90.1007506, 32.4262605, 97.0], [-90.098306, 32.425773, 91.0], [-90.094794, 32.425244, 104.0], [-90.092604, 32.425206, 103.0], [-90.090719, 32.425345, 103.0], [-90.088592, 32.425824, 109.0], [-90.086702, 32.426551, 108.0]]}, "properties": {"source": "OpenStreetMap", "name": "Natchez Trace Lower - Natchez to Ridgeland", "distance_miles": 105}}]}